[
    {
        "Altitude(m)": 622200.1317749122,
        "Argument of Periapsis(deg)": 0.0,
        "Eccentricity": 0.0,
        "Inclination(deg)": 60.0,
        "Latitude(deg)": -52.16260605164488,
        "Longitude(deg)": -22.639123156423278,
        "Mean Anomaly(deg)": -65.45449999999998,
        "RAAN(deg)": 125.00000000000001,
        "Satellite Name": "Test1 568",
        "Satellite Number": 568,
        "Semi-Major Axis(m)": 6980739.136638005,
        "Time(s)": 0
    },
    {
        "Altitude(m)": 622058.2991267535,
        "Argument of Periapsis(deg)": 0.00010418945913296404,
        "Eccentricity": 0.0,
        "Inclination(deg)": 60.0,
        "Latitude(deg)": -51.79935440347913,
        "Longitude(deg)": -21.871065747468585,
        "Mean Anomaly(deg)": -64.83439385453813,
        "RAAN(deg)": 124.99957995086027,
        "Satellite Name": "Test1 568",
        "Satellite Number": 568,
        "Semi-Major Axis(m)": 6980739.136638005,
        "Time(s)": 10
    }
]